0 COSMOS 2251 DEB
1 38189U 93036BSD 13283.92921756  .00005259  00000-0  14896-2 0  1182
2 38189 074.0297 124.8004 0017794 205.1169 154.9796 14.45683263119397
0 COSMOS 2251 DEB
1 38189U 93036BSD 13291.82935420  .00011483  00000-0  32292-2 0  1190
2 38189 074.0342 110.0603 0018401 168.3631 253.4400 14.45840568120538
0 COSMOS 2251 DEB
1 38189U 93036BSD 13295.83052020  .00008719  00000-0  24512-2 0  1207
2 38189 074.0342 102.5987 0018392 159.9406 200.2213 14.45911413121119
